STARLINK-36587          
1 67532U 26014A   26050.63505279  .00264804  00000+0  13384-2 0  9990
2 67532  97.2829 294.7172 0000699  96.7399 263.3949 15.80868449  5735
STARLINK-36417          
1 67533U 26014B   26051.12942431  .00248068  00000+0  16077-2 0  9997
2 67533  97.2832 295.1128 0001156  74.2141 285.9252 15.75311015  5802
STARLINK-36576          
1 67534U 26014C   26050.64873270  .00113442  00000+0  75065-3 0  9998
2 67534  97.2829 294.6970 0003028 110.1377 250.0214 15.75208548  5738
STARLINK-36574          
1 67535U 26014D   26051.16670139 -.00012245  00000+0 -81356-4 0  9998
2 67535  97.2841 295.2681 0003240 104.7033  16.6366 15.75178175  5874
STARLINK-36572          
1 67536U 26014E   26051.17919590  .00215758  00000+0  14053-2 0  9997
2 67536  97.2843 295.1999 0001966  70.0301 290.1176 15.75285134  5810
STARLINK-36561          
1 67537U 26014F   26051.12166517  .00290169  00000+0  18710-2 0  9999
2 67537  97.2837 295.1226 0001704  65.6000 294.5443 15.75312394  5806
STARLINK-36397          
1 67538U 26014G   26051.12555154  .00306984  00000+0  19758-2 0  9995
2 67538  97.2848 295.1191 0002465  63.3287 296.8230 15.75307830  5805
STARLINK-36573          
1 67539U 26014H   26051.16670139 -.00092386  00000+0 -62403-3 0  9997
2 67539  97.2847 295.2572 0001418  82.0359  17.2739 15.75234054  5877
STARLINK-36585          
1 67540U 26014J   26051.11743030  .00305344  00000+0  19646-2 0  9994
2 67540  97.2834 295.1268 0001710  50.6874 309.4542 15.75320865  5801
STARLINK-36579          
1 67541U 26014K   26051.10966122  .00265746  00000+0  17191-2 0  9997
2 67541  97.2835 295.1398 0000861  19.9696 340.1603 15.75304903  5808
STARLINK-35934          
1 67542U 26014L   26051.16670139  .00018407  00000+0  12413-3 0  9997
2 67542  97.2840 295.2816 0001692 104.0847  51.2476 15.75166464  5860
STARLINK-36581          
1 67543U 26014M   26050.57533086  .00280088  00000+0  18091-2 0  9994
2 67543  97.2832 294.6422 0002531  95.7420 264.4134 15.75299814  5724
