CCSDS_OMM_VERS = 2.0
CREATION_DATE  = 
ORIGINATOR     = 

OBJECT_NAME    = STARLINK-36587
OBJECT_ID      = 2026-014A
CENTER_NAME    = EARTH
REF_FRAME      = TEME
TIME_SYSTEM    = UTC
MEAN_ELEMENT_THEORY = SGP/SGP4

EPOCH          = 2026-02-19T15:14:28.561056
MEAN_MOTION    = 15.80868449
ECCENTRICITY   = .00006994
INCLINATION    = 97.2829
RA_OF_ASC_NODE = 294.7172
ARG_OF_PERICENTER = 96.7399
MEAN_ANOMALY   = 263.3949

EPHEMERIS_TYPE = 0
CLASSIFICATION_TYPE = U
NORAD_CAT_ID   = 67532
ELEMENT_SET_NO = 999
REV_AT_EPOCH   = 573
BSTAR          = .13384291E-2
MEAN_MOTION_DOT = .264804E-2
MEAN_MOTION_DDOT = 0

CCSDS_OMM_VERS = 2.0
CREATION_DATE  = 
ORIGINATOR     = 

OBJECT_NAME    = STARLINK-36417
OBJECT_ID      = 2026-014B
CENTER_NAME    = EARTH
REF_FRAME      = TEME
TIME_SYSTEM    = UTC
MEAN_ELEMENT_THEORY = SGP/SGP4

EPOCH          = 2026-02-20T03:06:22.260384
MEAN_MOTION    = 15.75311015
ECCENTRICITY   = .0001156
INCLINATION    = 97.2832
RA_OF_ASC_NODE = 295.1128
ARG_OF_PERICENTER = 74.2141
MEAN_ANOMALY   = 285.9252

EPHEMERIS_TYPE = 0
CLASSIFICATION_TYPE = U
NORAD_CAT_ID   = 67533
ELEMENT_SET_NO = 999
REV_AT_EPOCH   = 580
BSTAR          = .16077E-2
MEAN_MOTION_DOT = .248068E-2
MEAN_MOTION_DDOT = 0

CCSDS_OMM_VERS = 2.0
CREATION_DATE  = 
ORIGINATOR     = 

OBJECT_NAME    = STARLINK-36576
OBJECT_ID      = 2026-014C
CENTER_NAME    = EARTH
REF_FRAME      = TEME
TIME_SYSTEM    = UTC
MEAN_ELEMENT_THEORY = SGP/SGP4

EPOCH          = 2026-02-19T15:34:10.505280
MEAN_MOTION    = 15.75208548
ECCENTRICITY   = .0003028
INCLINATION    = 97.2829
RA_OF_ASC_NODE = 294.6970
ARG_OF_PERICENTER = 110.1377
MEAN_ANOMALY   = 250.0214

EPHEMERIS_TYPE = 0
CLASSIFICATION_TYPE = U
NORAD_CAT_ID   = 67534
ELEMENT_SET_NO = 999
REV_AT_EPOCH   = 573
BSTAR          = .75065E-3
MEAN_MOTION_DOT = .113442E-2
MEAN_MOTION_DDOT = 0

CCSDS_OMM_VERS = 2.0
CREATION_DATE  = 
ORIGINATOR     = 

OBJECT_NAME    = STARLINK-36574
OBJECT_ID      = 2026-014D
CENTER_NAME    = EARTH
REF_FRAME      = TEME
TIME_SYSTEM    = UTC
MEAN_ELEMENT_THEORY = SGP/SGP4

EPOCH          = 2026-02-20T04:00:03.000096
MEAN_MOTION    = 15.75178175
ECCENTRICITY   = .000324
INCLINATION    = 97.2841
RA_OF_ASC_NODE = 295.2681
ARG_OF_PERICENTER = 104.7033
MEAN_ANOMALY   = 16.6366

EPHEMERIS_TYPE = 0
CLASSIFICATION_TYPE = U
NORAD_CAT_ID   = 67535
ELEMENT_SET_NO = 999
REV_AT_EPOCH   = 587
BSTAR          = -.81356E-4
MEAN_MOTION_DOT = -.12245E-3
MEAN_MOTION_DDOT = 0

CCSDS_OMM_VERS = 2.0
CREATION_DATE  = 
ORIGINATOR     = 

OBJECT_NAME    = STARLINK-36572
OBJECT_ID      = 2026-014E
CENTER_NAME    = EARTH
REF_FRAME      = TEME
TIME_SYSTEM    = UTC
MEAN_ELEMENT_THEORY = SGP/SGP4

EPOCH          = 2026-02-20T04:18:02.525760
MEAN_MOTION    = 15.75285134
ECCENTRICITY   = .0001966
INCLINATION    = 97.2843
RA_OF_ASC_NODE = 295.1999
ARG_OF_PERICENTER = 70.0301
MEAN_ANOMALY   = 290.1176

EPHEMERIS_TYPE = 0
CLASSIFICATION_TYPE = U
NORAD_CAT_ID   = 67536
ELEMENT_SET_NO = 999
REV_AT_EPOCH   = 581
BSTAR          = .14053E-2
MEAN_MOTION_DOT = .215758E-2
MEAN_MOTION_DDOT = 0

CCSDS_OMM_VERS = 2.0
CREATION_DATE  = 
ORIGINATOR     = 

OBJECT_NAME    = STARLINK-36561
OBJECT_ID      = 2026-014F
CENTER_NAME    = EARTH
REF_FRAME      = TEME
TIME_SYSTEM    = UTC
MEAN_ELEMENT_THEORY = SGP/SGP4

EPOCH          = 2026-02-20T02:55:11.870688
MEAN_MOTION    = 15.75312394
ECCENTRICITY   = .0001704
INCLINATION    = 97.2837
RA_OF_ASC_NODE = 295.1226
ARG_OF_PERICENTER = 65.6000
MEAN_ANOMALY   = 294.5443

EPHEMERIS_TYPE = 0
CLASSIFICATION_TYPE = U
NORAD_CAT_ID   = 67537
ELEMENT_SET_NO = 999
REV_AT_EPOCH   = 580
BSTAR          = .1871E-2
MEAN_MOTION_DOT = .290169E-2
MEAN_MOTION_DDOT = 0

CCSDS_OMM_VERS = 2.0
CREATION_DATE  = 
ORIGINATOR     = 

OBJECT_NAME    = STARLINK-36397
OBJECT_ID      = 2026-014G
CENTER_NAME    = EARTH
REF_FRAME      = TEME
TIME_SYSTEM    = UTC
MEAN_ELEMENT_THEORY = SGP/SGP4

EPOCH          = 2026-02-20T03:00:47.653056
MEAN_MOTION    = 15.75307830
ECCENTRICITY   = .0002465
INCLINATION    = 97.2848
RA_OF_ASC_NODE = 295.1191
ARG_OF_PERICENTER = 63.3287
MEAN_ANOMALY   = 296.8230

EPHEMERIS_TYPE = 0
CLASSIFICATION_TYPE = U
NORAD_CAT_ID   = 67538
ELEMENT_SET_NO = 999
REV_AT_EPOCH   = 580
BSTAR          = .19758E-2
MEAN_MOTION_DOT = .306984E-2
MEAN_MOTION_DDOT = 0

CCSDS_OMM_VERS = 2.0
CREATION_DATE  = 
ORIGINATOR     = 

OBJECT_NAME    = STARLINK-36573
OBJECT_ID      = 2026-014H
CENTER_NAME    = EARTH
REF_FRAME      = TEME
TIME_SYSTEM    = UTC
MEAN_ELEMENT_THEORY = SGP/SGP4

EPOCH          = 2026-02-20T04:00:03.000096
MEAN_MOTION    = 15.75234054
ECCENTRICITY   = .0001418
INCLINATION    = 97.2847
RA_OF_ASC_NODE = 295.2572
ARG_OF_PERICENTER = 82.0359
MEAN_ANOMALY   = 17.2739

EPHEMERIS_TYPE = 0
CLASSIFICATION_TYPE = U
NORAD_CAT_ID   = 67539
ELEMENT_SET_NO = 999
REV_AT_EPOCH   = 587
BSTAR          = -.62403E-3
MEAN_MOTION_DOT = -.92386E-3
MEAN_MOTION_DDOT = 0

CCSDS_OMM_VERS = 2.0
CREATION_DATE  = 
ORIGINATOR     = 

OBJECT_NAME    = STARLINK-36585
OBJECT_ID      = 2026-014J
CENTER_NAME    = EARTH
REF_FRAME      = TEME
TIME_SYSTEM    = UTC
MEAN_ELEMENT_THEORY = SGP/SGP4

EPOCH          = 2026-02-20T02:49:05.977920
MEAN_MOTION    = 15.75320865
ECCENTRICITY   = .000171
INCLINATION    = 97.2834
RA_OF_ASC_NODE = 295.1268
ARG_OF_PERICENTER = 50.6874
MEAN_ANOMALY   = 309.4542

EPHEMERIS_TYPE = 0
CLASSIFICATION_TYPE = U
NORAD_CAT_ID   = 67540
ELEMENT_SET_NO = 999
REV_AT_EPOCH   = 580
BSTAR          = .19646E-2
MEAN_MOTION_DOT = .305344E-2
MEAN_MOTION_DDOT = 0

CCSDS_OMM_VERS = 2.0
CREATION_DATE  = 
ORIGINATOR     = 

OBJECT_NAME    = STARLINK-36579
OBJECT_ID      = 2026-014K
CENTER_NAME    = EARTH
REF_FRAME      = TEME
TIME_SYSTEM    = UTC
MEAN_ELEMENT_THEORY = SGP/SGP4

EPOCH          = 2026-02-20T02:37:54.729408
MEAN_MOTION    = 15.75304903
ECCENTRICITY   = .0000861
INCLINATION    = 97.2835
RA_OF_ASC_NODE = 295.1398
ARG_OF_PERICENTER = 19.9696
MEAN_ANOMALY   = 340.1603

EPHEMERIS_TYPE = 0
CLASSIFICATION_TYPE = U
NORAD_CAT_ID   = 67541
ELEMENT_SET_NO = 999
REV_AT_EPOCH   = 580
BSTAR          = .17191E-2
MEAN_MOTION_DOT = .265746E-2
MEAN_MOTION_DDOT = 0

CCSDS_OMM_VERS = 2.0
CREATION_DATE  = 
ORIGINATOR     = 

OBJECT_NAME    = STARLINK-35934
OBJECT_ID      = 2026-014L
CENTER_NAME    = EARTH
REF_FRAME      = TEME
TIME_SYSTEM    = UTC
MEAN_ELEMENT_THEORY = SGP/SGP4

EPOCH          = 2026-02-20T04:00:03.000096
MEAN_MOTION    = 15.75166464
ECCENTRICITY   = .0001692
INCLINATION    = 97.2840
RA_OF_ASC_NODE = 295.2816
ARG_OF_PERICENTER = 104.0847
MEAN_ANOMALY   = 51.2476

EPHEMERIS_TYPE = 0
CLASSIFICATION_TYPE = U
NORAD_CAT_ID   = 67542
ELEMENT_SET_NO = 999
REV_AT_EPOCH   = 586
BSTAR          = .12413E-3
MEAN_MOTION_DOT = .18407E-3
MEAN_MOTION_DDOT = 0

CCSDS_OMM_VERS = 2.0
CREATION_DATE  = 
ORIGINATOR     = 

OBJECT_NAME    = STARLINK-36581
OBJECT_ID      = 2026-014M
CENTER_NAME    = EARTH
REF_FRAME      = TEME
TIME_SYSTEM    = UTC
MEAN_ELEMENT_THEORY = SGP/SGP4

EPOCH          = 2026-02-19T13:48:28.586304
MEAN_MOTION    = 15.75299814
ECCENTRICITY   = .0002531
INCLINATION    = 97.2832
RA_OF_ASC_NODE = 294.6422
ARG_OF_PERICENTER = 95.7420
MEAN_ANOMALY   = 264.4134

EPHEMERIS_TYPE = 0
CLASSIFICATION_TYPE = U
NORAD_CAT_ID   = 67543
ELEMENT_SET_NO = 999
REV_AT_EPOCH   = 572
BSTAR          = .18091E-2
MEAN_MOTION_DOT = .280088E-2
MEAN_MOTION_DDOT = 0

